{
    "links": {
        "self": "http://www.neowsapp.com/rest/v1/neo/3555154?api_key=iIulBulltgU6a56xZRHN4H3l9WmuAYTsLGpBGhQ2"
    },
    "id": "3555154",
    "neo_reference_id": "3555154",
    "name": "(2011 AZ22)",
    "designation": "2011 AZ22",
    "nasa_jpl_url": "http://ssd.jpl.nasa.gov/sbdb.cgi?sstr=3555154",
    "absolute_magnitude_h": 28.6,
    "estimated_diameter": {
        "kilometers": {
            "estimated_diameter_min": 0.0050647146,
            "estimated_diameter_max": 0.0113250461
        },
        "meters": {
            "estimated_diameter_min": 5.0647145883,
            "estimated_diameter_max": 11.3250461062
        },
        "miles": {
            "estimated_diameter_min": 0.0031470668,
            "estimated_diameter_max": 0.0070370552
        },
        "feet": {
            "estimated_diameter_min": 16.61651821,
            "estimated_diameter_max": 37.155664267
        }
    },
    "is_potentially_hazardous_asteroid": false,
    "close_approach_data": [
        {
            "close_approach_date": "2011-01-09",
            "close_approach_date_full": "2011-Jan-09 14:11",
            "epoch_date_close_approach": 1294582260000,
            "relative_velocity": {
                "kilometers_per_second": "12.1950418798",
                "kilometers_per_hour": "43902.1507673149",
                "miles_per_hour": "27279.0891809463"
            },
            "miss_distance": {
                "astronomical": "0.0031169042",
                "lunar": "1.2124757338",
                "kilometers": "466282.229314054",
                "miles": "289734.3421357852"
            },
            "orbiting_body": "Moon"
        },
        {
            "close_approach_date": "2011-01-09",
            "close_approach_date_full": "2011-Jan-09 20:17",
            "epoch_date_close_approach": 1294604220000,
            "relative_velocity": {
                "kilometers_per_second": "12.6958002585",
                "kilometers_per_hour": "45704.8809307728",
                "miles_per_hour": "28399.235598346"
            },
            "miss_distance": {
                "astronomical": "0.003394868",
                "lunar": "1.320603652",
                "kilometers": "507865.02173116",
                "miles": "315572.691203608"
            },
            "orbiting_body": "Earth"
        }
    ],
    "orbital_data": {
        "orbit_id": "5",
        "orbit_determination_date": "2017-04-06 08:55:02",
        "first_observation_date": "2011-01-11",
        "last_observation_date": "2011-01-11",
        "data_arc_in_days": null,
        "observations_used": 16,
        "orbit_uncertainty": "9",
        "minimum_orbit_intersection": ".00223648",
        "jupiter_tisserand_invariant": "3.556",
        "epoch_osculation": "2455572.5",
        "eccentricity": ".5758548784105841",
        "semi_major_axis": "2.050087528801009",
        "inclination": "7.373959702199395",
        "ascending_node_longitude": "109.6977874023841",
        "orbital_period": "1072.153659948714",
        "perihelion_distance": ".8695346241722489",
        "perihelion_argument": "311.9735275621289",
        "aphelion_distance": "3.230640433429769",
        "perihelion_time": "2455537.602252161963",
        "mean_anomaly": "11.71771331946418",
        "mean_motion": ".3357727660205164",
        "equinox": "J2000",
        "orbit_class": {
            "orbit_class_type": "APO",
            "orbit_class_description": "Near-Earth asteroid orbits which cross the Earth’s orbit similar to that of 1862 Apollo",
            "orbit_class_range": "a (semi-major axis) > 1.0 AU; q (perihelion) < 1.017 AU"
        }
    },
    "is_sentry_object": false
}